{
  "type": "FeatureCollection",
  "features": [
    {
      "type": "Feature",
      "properties": {
        "norad_id": 33924,
        "name": "COSMOS 2251 DEB",
        "group": "cosmos-2251-debris",
        "lat": 54.48235066577816,
        "lon": -86.1286085334203,
        "alt_km": 1271.1168726509968,
        "timestamp": "2025-12-25T07:00:34.441258+00:00",
        "meta_object_name": "COSMOS 2251 DEB",
        "meta_object_id": "1993-036ED",
        "meta_epoch": "2025-12-24T20:02:59.061984",
        "meta_mean_motion": 13.50239131,
        "meta_eccentricity": 0.04037941,
        "meta_inclination": 73.913,
        "meta_ra_of_asc_node": 250.7588,
        "meta_arg_of_pericenter": 284.0756,
        "meta_mean_anomaly": 71.5791,
        "meta_ephemeris_type": 0,
        "meta_classification_type": "U",
        "meta_norad_cat_id": 33924,
        "meta_element_set_no": 999,
        "meta_rev_at_epoch": 82902,
        "meta_bstar": 0.00042332524,
        "meta_mean_motion_dot": 4.24e-06,
        "meta_mean_motion_ddot": 0,
        "tle_line1": "1 33924U 93036ED  25358.83540581  .00000424  00000+0  42333-3 0  9996",
        "tle_line2": "2 33924  73.9130 250.7588 0403794 284.0756  71.5791 13.50239131829029"
      },
      "geometry": {
        "type": "Point",
        "coordinates": [
          -86.1286085334203,
          54.48235066577816
        ]
      }
    },
    {
      "type": "Feature",
      "properties": {
        "norad_id": 33928,
        "name": "COSMOS 2251 DEB",
        "group": "cosmos-2251-debris",
        "lat": 34.57344629228964,
        "lon": 40.39391454452804,
        "alt_km": 720.354162761012,
        "timestamp": "2025-12-25T07:00:34.441268+00:00",
        "meta_object_name": "COSMOS 2251 DEB",
        "meta_object_id": "1993-036EH",
        "meta_epoch": "2025-12-24T19:13:57.193824",
        "meta_mean_motion": 14.47426209,
        "meta_eccentricity": 0.00620303,
        "meta_inclination": 73.9253,
        "meta_ra_of_asc_node": 29.8554,
        "meta_arg_of_pericenter": 321.5269,
        "meta_mean_anomaly": 38.1474,
        "meta_ephemeris_type": 0,
        "meta_classification_type": "U",
        "meta_norad_cat_id": 33928,
        "meta_element_set_no": 999,
        "meta_rev_at_epoch": 88819,
        "meta_bstar": 0.00024854441,
        "meta_mean_motion_dot": 9.04e-06,
        "meta_mean_motion_ddot": 0,
        "tle_line1": "1 33928U 93036EH  25358.80135641  .00000904  00000+0  24854-3 0  9995",
        "tle_line2": "2 33928  73.9253  29.8554 0062030 321.5269  38.1474 14.47426209888198"
      },
      "geometry": {
        "type": "Point",
        "coordinates": [
          40.39391454452804,
          34.57344629228964
        ]
      }
    },
    {
      "type": "Feature",
      "properties": {
        "norad_id": 33932,
        "name": "COSMOS 2251 DEB",
        "group": "cosmos-2251-debris",
        "lat": 35.22682083852816,
        "lon": 101.10371113837495,
        "alt_km": 778.5186526285288,
        "timestamp": "2025-12-25T07:00:34.441279+00:00",
        "meta_object_name": "COSMOS 2251 DEB",
        "meta_object_id": "1993-036EM",
        "meta_epoch": "2025-12-24T20:20:10.088736",
        "meta_mean_motion": 14.38792115,
        "meta_eccentricity": 0.00359299,
        "meta_inclination": 74.0343,
        "meta_ra_of_asc_node": 293.5864,
        "meta_arg_of_pericenter": 6.8678,
        "meta_mean_anomaly": 353.2961,
        "meta_ephemeris_type": 0,
        "meta_classification_type": "U",
        "meta_norad_cat_id": 33932,
        "meta_element_set_no": 999,
        "meta_rev_at_epoch": 88172,
        "meta_bstar": 0.00045811403,
        "meta_mean_motion_dot": 1.392e-05,
        "meta_mean_motion_ddot": 0,
        "tle_line1": "1 33932U 93036EM  25358.84733899  .00001392  00000+0  45811-3 0  9991",
        "tle_line2": "2 33932  74.0343 293.5864 0035929   6.8678 353.2961 14.38792115881729"
      },
      "geometry": {
        "type": "Point",
        "coordinates": [
          101.10371113837495,
          35.22682083852816
        ]
      }
    },
    {
      "type": "Feature",
      "properties": {
        "norad_id": 33933,
        "name": "COSMOS 2251 DEB",
        "group": "cosmos-2251-debris",
        "lat": 61.77491026924519,
        "lon": -174.8433590771075,
        "alt_km": 757.3160023690007,
        "timestamp": "2025-12-25T07:00:34.441290+00:00",
        "meta_object_name": "COSMOS 2251 DEB",
        "meta_object_id": "1993-036EN",
        "meta_epoch": "2025-12-24T20:26:18.619296",
        "meta_mean_motion": 14.33506993,
        "meta_eccentricity": 0.00710191,
        "meta_inclination": 74.0888,
        "meta_ra_of_asc_node": 38.0616,
        "meta_arg_of_pericenter": 42.8616,
        "meta_mean_anomaly": 317.804,
        "meta_ephemeris_type": 0,
        "meta_classification_type": "U",
        "meta_norad_cat_id": 33933,
        "meta_element_set_no": 999,
        "meta_rev_at_epoch": 87958,
        "meta_bstar": 0.00026965055,
        "meta_mean_motion_dot": 7.41e-06,
        "meta_mean_motion_ddot": 0,
        "tle_line1": "1 33933U 93036EN  25358.85160439  .00000741  00000+0  26965-3 0  9993",
        "tle_line2": "2 33933  74.0888  38.0616 0071019  42.8616 317.8040 14.33506993879580"
      },
      "geometry": {
        "type": "Point",
        "coordinates": [
          -174.8433590771075,
          61.77491026924519
        ]
      }
    },
    {
      "type": "Feature",
      "properties": {
        "norad_id": 33934,
        "name": "COSMOS 2251 DEB",
        "group": "cosmos-2251-debris",
        "lat": -49.235056581860476,
        "lon": 57.265620627095274,
        "alt_km": 705.5595981392726,
        "timestamp": "2025-12-25T07:00:34.441300+00:00",
        "meta_object_name": "COSMOS 2251 DEB",
        "meta_object_id": "1993-036EP",
        "meta_epoch": "2025-12-24T14:47:37.348800",
        "meta_mean_motion": 14.59201194,
        "meta_eccentricity": 0.00151393,
        "meta_inclination": 74.038,
        "meta_ra_of_asc_node": 77.9425,
        "meta_arg_of_pericenter": 201.5334,
        "meta_mean_anomaly": 158.5197,
        "meta_ephemeris_type": 0,
        "meta_classification_type": "U",
        "meta_norad_cat_id": 33934,
        "meta_element_set_no": 999,
        "meta_rev_at_epoch": 88912,
        "meta_bstar": 0.00085511875,
        "meta_mean_motion_dot": 4.012e-05,
        "meta_mean_motion_ddot": 0,
        "tle_line1": "1 33934U 93036EP  25358.61640450  .00004012  00000+0  85512-3 0  9992",
        "tle_line2": "2 33934  74.0380  77.9425 0015139 201.5334 158.5197 14.59201194889127"
      },
      "geometry": {
        "type": "Point",
        "coordinates": [
          57.265620627095274,
          -49.235056581860476
        ]
      }
    },
    {
      "type": "Feature",
      "properties": {
        "norad_id": 33936,
        "name": "COSMOS 2251 DEB",
        "group": "cosmos-2251-debris",
        "lat": -66.04506429977779,
        "lon": -26.678526184985902,
        "alt_km": 708.9985632077187,
        "timestamp": "2025-12-25T07:00:34.441310+00:00",
        "meta_object_name": "COSMOS 2251 DEB",
        "meta_object_id": "1993-036ER",
        "meta_epoch": "2025-12-24T11:36:37.344384",
        "meta_mean_motion": 14.60338855,
        "meta_eccentricity": 0.00267461,
        "meta_inclination": 74.0179,
        "meta_ra_of_asc_node": 15.0368,
        "meta_arg_of_pericenter": 167.6174,
        "meta_mean_anomaly": 192.5655,
        "meta_ephemeris_type": 0,
        "meta_classification_type": "U",
        "meta_norad_cat_id": 33936,
        "meta_element_set_no": 999,
        "meta_rev_at_epoch": 89061,
        "meta_bstar": 0.00064051634,
        "meta_mean_motion_dot": 3.083e-05,
        "meta_mean_motion_ddot": 0,
        "tle_line1": "1 33936U 93036ER  25358.48376556  .00003083  00000+0  64052-3 0  9995",
        "tle_line2": "2 33936  74.0179  15.0368 0026746 167.6174 192.5655 14.60338855890614"
      },
      "geometry": {
        "type": "Point",
        "coordinates": [
          -26.678526184985902,
          -66.04506429977779
        ]
      }
    },
    {
      "type": "Feature",
      "properties": {
        "norad_id": 33938,
        "name": "COSMOS 2251 DEB",
        "group": "cosmos-2251-debris",
        "lat": -66.20441855456457,
        "lon": 44.193821021369175,
        "alt_km": 731.244735583854,
        "timestamp": "2025-12-25T07:00:34.441321+00:00",
        "meta_object_name": "COSMOS 2251 DEB",
        "meta_object_id": "1993-036ET",
        "meta_epoch": "2025-12-24T22:05:43.868832",
        "meta_mean_motion": 14.46829318,
        "meta_eccentricity": 0.00168007,
        "meta_inclination": 74.0436,
        "meta_ra_of_asc_node": 184.4336,
        "meta_arg_of_pericenter": 265.6162,
        "meta_mean_anomaly": 212.7273,
        "meta_ephemeris_type": 0,
        "meta_classification_type": "U",
        "meta_norad_cat_id": 33938,
        "meta_element_set_no": 999,
        "meta_rev_at_epoch": 88576,
        "meta_bstar": 0.00042990719,
        "meta_mean_motion_dot": 1.534e-05,
        "meta_mean_motion_ddot": 0,
        "tle_line1": "1 33938U 93036ET  25358.92064663  .00001534  00000+0  42991-3 0  9996",
        "tle_line2": "2 33938  74.0436 184.4336 0016800 265.6162 212.7273 14.46829318885768"
      },
      "geometry": {
        "type": "Point",
        "coordinates": [
          44.193821021369175,
          -66.20441855456457
        ]
      }
    }
  ]
}